NORAD_CAT_ID,OBJECT_NAME,OBJECT_TYPE,EPOCH,MEAN_MOTION,ECCENTRICITY,INCLINATION,RA_OF_ASC_NODE,ARG_OF_PERICENTER,MEAN_ANOMALY,BSTAR,MEAN_MOTION_DOT,MEAN_MOTION_DDOT,TLE_LINE0,TLE_LINE1,TLE_LINE2,SEMIMAJOR_AXIS,PERIOD,APOGEE,PERIGEE,DECAYED
55665.0,STARLINK-5474,PAYLOAD,2023-05-01 20:53:23,15.69931252,0.0003622,69.998,304.3985,263.0084,97.07,8.3721e-06,7.94e-06,0.0,0 STARLINK-5474,1 55665U 23021AP  23121.87041276  .00000794  00000-0  83721-5 0  9995,2 55665  69.9980 304.3985 0003622 263.0084  97.0700 15.69931252 12322,6737.231,91.724,361.536,356.655,0.0
55665.0,STARLINK-5474,PAYLOAD,2023-05-02 13:42:40,15.69926808,0.0003604,69.9986,302.4278,265.685,94.3934,4.4662e-06,3.24e-06,0.0,0 STARLINK-5474,1 55665U 23021AP  23122.57129878  .00000324  00000-0  44662-5 0  9998,2 55665  69.9986 302.4278 0003604 265.6850  94.3934 15.69926808 12433,6737.243,91.724,361.537,356.68,0.0
55665.0,STARLINK-5474,PAYLOAD,2023-05-02 18:17:55,15.69926312,0.0003767,69.9982,301.8899,267.3722,92.7043,9.3773e-06,9.15e-06,0.0,0 STARLINK-5474,1 55665U 23021AP  23122.76244888  .00000915  00000-0  93773-5 0  9991,2 55665  69.9982 301.8899 0003767 267.3722  92.7043 15.69926312 12161,6737.245,91.724,361.648,356.572,0.0
55665.0,STARLINK-5474,PAYLOAD,2023-05-02 21:21:25,15.69926014,0.0003822,69.9983,301.5315,267.254,92.8218,8.3262e-06,7.88e-06,0.0,0 STARLINK-5474,1 55665U 23021AP  23122.88988233  .00000788  00000-0  83262-5 0  9993,2 55665  69.9983 301.5315 0003822 267.2540  92.8218 15.69926014 12480,6737.246,91.724,361.686,356.536,0.0
55665.0,STARLINK-5474,PAYLOAD,2023-05-03 14:10:42,15.6992277,0.0003761,69.9985,299.5625,268.0309,92.0456,7.6108e-07,-1.22e-06,0.0,0 STARLINK-5474,1 55665U 23021AP  23123.59076940 -.00000122  00000-0  76108-6 0  9990,2 55665  69.9985 299.5625 0003761 268.0309  92.0456 15.69922770 12599,6737.255,91.724,361.654,356.586,0.0
55665.0,STARLINK-5474,PAYLOAD,2023-05-03 20:17:42,15.69938746,0.0003601,69.9988,298.8461,267.2488,92.8295,3.0495e-05,3.458e-05,0.0,0 STARLINK-5474,1 55665U 23021AP  23123.84562737  .00003458  00000-0  30495-4 0  9993,2 55665  69.9988 298.8461 0003601 267.2488  92.8295 15.69938746 12335,6737.209,91.723,361.5,356.648,0.0
55665.0,STARLINK-5474,PAYLOAD,2023-05-04 13:06:59,15.69923738,0.0003868,69.9996,296.8755,265.8561,94.2193,8.1312e-06,7.65e-06,0.0,0 STARLINK-5474,1 55665U 23021AP  23124.54651831  .00000765  00000-0  81312-5 0  9998,2 55665  69.9996 296.8755 0003868 265.8561  94.2193 15.69923738 12449,6737.252,91.724,361.723,356.511,0.0
55665.0,STARLINK-5474,PAYLOAD,2023-05-04 20:45:44,15.69923332,0.0003585,69.9993,295.9801,266.9594,93.1192,6.3552e-06,5.51e-06,0.0,0 STARLINK-5474,1 55665U 23021AP  23124.86510254  .00000551  00000-0  63552-5 0  9995,2 55665  69.9993 295.9801 0003585 266.9594  93.1192 15.69923332 12797,6737.253,91.724,361.534,356.703,0.0
55665.0,STARLINK-5474,PAYLOAD,2023-05-05 21:13:47,15.69916766,0.000316,70.0002,293.1127,268.0642,92.0192,-1.0967e-05,-1.531e-05,0.0,0 STARLINK-5474,1 55665U 23021AP  23125.88457601 -.00001531  00000-0 -10967-4 0  9996,2 55665  70.0002 293.1127 0003160 268.0642  92.0192 15.69916766 12654,6737.272,91.725,361.266,357.008,0.0
55665.0,STARLINK-5474,PAYLOAD,2023-05-06 14:03:03,15.69929426,0.0003698,70.0014,291.1427,273.9355,86.1418,4.2885e-05,4.948e-05,0.0,0 STARLINK-5474,1 55665U 23021AP  23126.58545485  .00004948  00000-0  42885-4 0  9999,2 55665  70.0014 291.1427 0003698 273.9355  86.1418 15.69929426 13068,6737.236,91.724,361.592,356.609,0.0
55665.0,STARLINK-5474,PAYLOAD,2023-05-07 03:48:49,15.69917261,0.0002998,70.0009,289.53,274.948,85.1373,8.9648e-07,-1.05e-06,0.0,0 STARLINK-5474,1 55665U 23021AP  23127.15891077 -.00000105  00000-0  89648-6 0  9996,2 55665  70.0009 289.5300 0002998 274.9480  85.1373 15.69917261 12854,6737.271,91.725,361.156,357.116,0.0
55665.0,STARLINK-5474,PAYLOAD,2023-05-07 12:59:20,15.69918772,0.0002966,70.0022,288.4547,275.5574,84.5284,3.182e-06,1.7e-06,0.0,0 STARLINK-5474,1 55665U 23021AP  23127.54121144  .00000170  00000-0  31820-5 0  9999,2 55665  70.0022 288.4547 0002966 275.5574  84.5284 15.69918772 13219,6737.266,91.724,361.13,357.133,0.0
55665.0,STARLINK-5474,PAYLOAD,2023-05-07 20:38:06,15.69900932,0.000295,70.0011,287.5586,276.9643,83.1217,-6.1654e-05,-7.611e-05,0.0,0 STARLINK-5474,1 55665U 23021AP  23127.85979783 -.00007611  00000-0 -61654-4 0  9999,2 55665  70.0011 287.5586 0002950 276.9643  83.1217 15.69900932 13260,6737.317,91.726,361.17,357.195,0.0
55665.0,STARLINK-5474,PAYLOAD,2023-05-08 04:16:52,15.69913973,0.0003322,69.9995,286.6627,275.9072,84.1745,6.3925e-06,5.56e-06,0.0,0 STARLINK-5474,1 55665U 23021AP  23128.17838015  .00000556  00000-0  63925-5 0  9990,2 55665  69.9995 286.6627 0003322 275.9072  84.1745 15.69913973 13012,6737.28,91.725,361.383,356.907,0.0
55665.0,STARLINK-5474,PAYLOAD,2023-05-08 11:55:36,15.6994518,0.0004339,70.0017,285.7684,279.906,80.1646,0.00011244,0.00013343,0.0,0 STARLINK-5474,1 55665U 23021AP  23128.49695274  .00013343  00000-0  11244-3 0  9996,2 55665  70.0017 285.7684 0004339 279.9060  80.1646 15.69945180 13069,6737.191,91.723,361.979,356.133,0.0
55665.0,STARLINK-5474,PAYLOAD,2023-05-08 19:34:22,15.69931167,0.0003512,70.0015,284.8729,288.6481,71.4333,-1.76e-05,-2.329e-05,0.0,0 STARLINK-5474,1 55665U 23021AP  23128.81553539 -.00002329  00000-0 -17600-4 0  9996,2 55665  70.0015 284.8729 0003512 288.6481  71.4333 15.69931167 13418,6737.231,91.724,361.462,356.73,0.0
55665.0,STARLINK-5474,PAYLOAD,2023-05-09 13:55:23,15.69918293,0.0003323,70.0028,282.7244,265.0363,95.0453,-2.2604e-05,-2.929e-05,0.0,0 STARLINK-5474,1 55665U 23021AP  23129.58013840 -.00002929  00000-0 -22604-4 0  9993,2 55665  70.0028 282.7244 0003323 265.0363  95.0453 15.69918293 13532,6737.268,91.725,361.372,356.894,0.0
55665.0,STARLINK-5474,PAYLOAD,2023-05-10 12:51:41,15.69929828,0.0003662,70.0005,280.0351,270.9533,89.1243,9.2439e-05,0.0001092,0.0,0 STARLINK-5474,1 55665U 23021AP  23130.53589402  .00010920  00000-0  92439-4 0  9993,2 55665  70.0005 280.0351 0003662 270.9533  89.1243 15.69929828 13680,6737.235,91.724,361.567,356.633,0.0
55665.0,STARLINK-5474,PAYLOAD,2023-05-10 18:58:41,15.69953367,0.0003341,70.0008,279.3183,270.847,89.2343,0.00019015,0.00022741,0.0,0 STARLINK-5474,1 55665U 23021AP  23130.79075667  .00022741  00000-0  19015-3 0  9996,2 55665  70.0008 279.3183 0003341 270.8470  89.2343 15.69953367 13722,6737.167,91.722,361.283,356.782,0.0
55665.0,STARLINK-5474,PAYLOAD,2023-05-11 10:16:13,15.6991554,0.0003624,69.9997,277.5268,286.4098,73.6699,5.7966e-05,6.761e-05,0.0,0 STARLINK-5474,1 55665U 23021AP  23131.42793158  .00006761  00000-0  57966-4 0  9991,2 55665  69.9997 277.5268 0003624 286.4098  73.6699 15.69915540 13826,6737.276,91.725,361.582,356.699,0.0
55665.0,STARLINK-5474,PAYLOAD,2023-05-11 11:47:58,15.69915992,0.000379,69.9996,277.348,272.1961,87.8801,-5.3149e-06,-8.52e-06,0.0,0 STARLINK-5474,1 55665U 23021AP  23131.49164635 -.00000852  00000-0 -53149-5 0  9997,2 55665  69.9996 277.3480 0003790 272.1961  87.8801 15.69915992 13535,6737.274,91.725,361.693,356.586,0.0
55665.0,STARLINK-5474,PAYLOAD,2023-05-11 16:23:13,15.69925621,0.0003362,70.0007,276.8132,263.5316,96.5497,3.2537e-05,3.702e-05,0.0,0 STARLINK-5474,1 55665U 23021AP  23131.68279596  .00003702  00000-0  32537-4 0  9993,2 55665  70.0007 276.8132 0003362 263.5316  96.5497 15.69925621 13866,6737.247,91.724,361.377,356.847,0.0
55665.0,STARLINK-5474,PAYLOAD,2023-05-12 03:05:29,15.69942094,0.0003612,70.0002,275.5569,270.315,89.7631,0.00010275,0.0001217,0.0,0 STARLINK-5474,1 55665U 23021AP  23132.12880998  .00012170  00000-0  10275-3 0  9990,2 55665  70.0002 275.5569 0003612 270.3150  89.7631 15.69942094 13633,6737.2,91.723,361.498,356.631,0.0
55665.0,STARLINK-5474,PAYLOAD,2023-05-12 18:23:00,15.69935229,0.0003702,70.0,273.7658,270.9508,89.1264,3.0925e-05,3.509e-05,0.0,0 STARLINK-5474,1 55665U 23021AP  23132.76597659  .00003509  00000-0  30925-4 0  9990,2 55665  70.0000 273.7658 0003702 270.9508  89.1264 15.69935229 13732,6737.219,91.724,361.578,356.59,0.0
55665.0,STARLINK-5474,PAYLOAD,2023-05-13 12:44:02,15.69922558,0.0003444,70.0004,271.6181,250.008,110.0745,4.8554e-06,3.71e-06,0.0,0 STARLINK-5474,1 55665U 23021AP  23133.53058052  .00000371  00000-0  48554-5 0  9997,2 55665  70.0004 271.6181 0003444 250.0080 110.0745 15.69922558 13853,6737.256,91.724,361.441,356.8,0.0
55665.0,STARLINK-5474,PAYLOAD,2023-05-13 18:51:02,15.69925902,0.0003281,70.0006,270.9,262.2041,97.8783,2.26e-05,2.506e-05,0.0,0 STARLINK-5474,1 55665U 23021AP  23133.78544903  .00002506  00000-0  22600-4 0  9994,2 55665  70.0006 270.9000 0003281 262.2041  97.8783 15.69925902 14196,6737.246,91.724,361.321,356.901,0.0
55665.0,STARLINK-5474,PAYLOAD,2023-05-14 11:40:19,15.69934773,0.0003402,70.0026,268.93,262.0819,97.9991,7.5271e-05,8.852e-05,0.0,0 STARLINK-5474,1 55665U 23021AP  23134.48633154  .00008852  00000-0  75271-4 0  9991,2 55665  70.0026 268.9300 0003402 262.0819  97.9991 15.69934773 14305,6737.221,91.724,361.378,356.794,0.0
55665.0,STARLINK-5474,PAYLOAD,2023-05-14 19:19:05,15.6991251,0.0002979,70.002,268.0363,266.6014,93.4841,-1.511e-05,-2.028e-05,0.0,0 STARLINK-5474,1 55665U 23021AP  23134.80491965 -.00002028  00000-0 -15110-4 0  9996,2 55665  70.0020 268.0363 0002979 266.6014  93.4841 15.69912510 14056,6737.284,91.725,361.156,357.142,0.0
55665.0,STARLINK-5474,PAYLOAD,2023-05-15 12:08:21,15.69921283,0.0003914,70.001,266.0637,271.5835,88.4912,3.3387e-06,1.88e-06,0.0,0 STARLINK-5474,1 55665U 23021AP  23135.50580118  .00000188  00000-0  33387-5 0  9993,2 55665  70.0010 266.0637 0003914 271.5835  88.4912 15.69921283 14468,6737.259,91.724,361.761,356.487,0.0
55665.0,STARLINK-5474,PAYLOAD,2023-05-15 16:43:36,15.69930342,0.0003554,70.0013,265.5272,263.9978,96.0813,3.8241e-05,4.389e-05,0.0,0 STARLINK-5474,1 55665U 23021AP  23135.69694895  .00004389  00000-0  38241-4 0  9991,2 55665  70.0013 265.5272 0003554 263.9978  96.0813 15.69930342 14194,6737.233,91.724,361.493,356.704,0.0
